{
  "type": "FeatureCollection",
  "features": [
    {
      "type": "Feature",
      "properties": {
        "norad_id": 29780,
        "name": "FENGYUN 1C DEB",
        "group": "fengyun-1c-debris",
        "lat": 64.69359532027681,
        "lon": -110.49881121924766,
        "alt_km": 799.1007225188023,
        "timestamp": "2025-12-14T16:47:40.954847+00:00",
        "meta_object_name": "FENGYUN 1C DEB",
        "meta_object_id": "1999-025BW",
        "meta_epoch": "2025-12-12T00:16:11.656128",
        "meta_mean_motion": 14.21032654,
        "meta_eccentricity": 0.00404925,
        "meta_inclination": 99.2771,
        "meta_ra_of_asc_node": 266.9031,
        "meta_arg_of_pericenter": 130.2254,
        "meta_mean_anomaly": 230.2476,
        "meta_ephemeris_type": 0,
        "meta_classification_type": "U",
        "meta_norad_cat_id": 29780,
        "meta_element_set_no": 999,
        "meta_rev_at_epoch": 97068,
        "meta_bstar": 0.0026897266,
        "meta_mean_motion_dot": 5.839e-05,
        "meta_mean_motion_ddot": 0,
        "tle_line1": "1 29780U 99025BW  25346.01124602  .00005839  00000+0  26897-2 0  9995",
        "tle_line2": "2 29780  99.2771 266.9031 0040492 130.2254 230.2476 14.21032654970688"
      },
      "geometry": {
        "type": "Point",
        "coordinates": [
          -110.49881121924766,
          64.69359532027681
        ]
      }
    },
    {
      "type": "Feature",
      "properties": {
        "norad_id": 29781,
        "name": "FENGYUN 1C DEB",
        "group": "fengyun-1c-debris",
        "lat": -80.62191190140723,
        "lon": 92.91938111439296,
        "alt_km": 890.9697436873103,
        "timestamp": "2025-12-14T16:47:40.954857+00:00",
        "meta_object_name": "FENGYUN 1C DEB",
        "meta_object_id": "1999-025BX",
        "meta_epoch": "2025-12-13T22:42:27.974304",
        "meta_mean_motion": 14.05228972,
        "meta_eccentricity": 0.00719304,
        "meta_inclination": 98.8096,
        "meta_ra_of_asc_node": 342.0672,
        "meta_arg_of_pericenter": 169.7683,
        "meta_mean_anomaly": 245.8626,
        "meta_ephemeris_type": 0,
        "meta_classification_type": "U",
        "meta_norad_cat_id": 29781,
        "meta_element_set_no": 999,
        "meta_rev_at_epoch": 96660,
        "meta_bstar": 0.00084081067,
        "meta_mean_motion_dot": 1.349e-05,
        "meta_mean_motion_ddot": 0,
        "tle_line1": "1 29781U 99025BX  25347.94615711  .00001349  00000+0  84081-3 0  9997",
        "tle_line2": "2 29781  98.8096 342.0672 0071930 169.7683 245.8626 14.05228972966603"
      },
      "geometry": {
        "type": "Point",
        "coordinates": [
          92.91938111439296,
          -80.62191190140723
        ]
      }
    },
    {
      "type": "Feature",
      "properties": {
        "norad_id": 29782,
        "name": "FENGYUN 1C DEB",
        "group": "fengyun-1c-debris",
        "lat": -10.95610133567799,
        "lon": 44.10111633148544,
        "alt_km": 893.0672905045249,
        "timestamp": "2025-12-14T16:47:40.954867+00:00",
        "meta_object_name": "FENGYUN 1C DEB",
        "meta_object_id": "1999-025BY",
        "meta_epoch": "2025-12-14T00:23:51.256608",
        "meta_mean_motion": 14.11670961,
        "meta_eccentricity": 0.00555432,
        "meta_inclination": 99.1009,
        "meta_ra_of_asc_node": 41.6302,
        "meta_arg_of_pericenter": 199.5408,
        "meta_mean_anomaly": 278.9813,
        "meta_ephemeris_type": 0,
        "meta_classification_type": "U",
        "meta_norad_cat_id": 29782,
        "meta_element_set_no": 999,
        "meta_rev_at_epoch": 96689,
        "meta_bstar": 0.0015920048,
        "meta_mean_motion_dot": 2.893e-05,
        "meta_mean_motion_ddot": 0,
        "tle_line1": "1 29782U 99025BY  25348.01656547  .00002893  00000+0  15920-2 0  9999",
        "tle_line2": "2 29782  99.1009  41.6302 0055543 199.5408 278.9813 14.11670961966894"
      },
      "geometry": {
        "type": "Point",
        "coordinates": [
          44.10111633148544,
          -10.95610133567799
        ]
      }
    },
    {
      "type": "Feature",
      "properties": {
        "norad_id": 29784,
        "name": "FENGYUN 1C DEB",
        "group": "fengyun-1c-debris",
        "lat": -79.962089547987,
        "lon": -29.598815520371925,
        "alt_km": 756.3652194344895,
        "timestamp": "2025-12-14T16:47:40.954877+00:00",
        "meta_object_name": "FENGYUN 1C DEB",
        "meta_object_id": "1999-025CA",
        "meta_epoch": "2025-12-14T00:28:23.355264",
        "meta_mean_motion": 14.30589197,
        "meta_eccentricity": 0.00593601,
        "meta_inclination": 98.9451,
        "meta_ra_of_asc_node": 266.8533,
        "meta_arg_of_pericenter": 293.6083,
        "meta_mean_anomaly": 80.723,
        "meta_ephemeris_type": 0,
        "meta_classification_type": "U",
        "meta_norad_cat_id": 29784,
        "meta_element_set_no": 999,
        "meta_rev_at_epoch": 98378,
        "meta_bstar": 0.00069893824,
        "meta_mean_motion_dot": 1.812e-05,
        "meta_mean_motion_ddot": 0,
        "tle_line1": "1 29784U 99025CA  25348.01971476  .00001812  00000+0  69894-3 0  9992",
        "tle_line2": "2 29784  98.9451 266.8533 0059360 293.6083  80.7230 14.30589197983787"
      },
      "geometry": {
        "type": "Point",
        "coordinates": [
          -29.598815520371925,
          -79.962089547987
        ]
      }
    },
    {
      "type": "Feature",
      "properties": {
        "norad_id": 29786,
        "name": "FENGYUN 1C DEB",
        "group": "fengyun-1c-debris",
        "lat": 61.9170122520568,
        "lon": -10.890625708847335,
        "alt_km": 888.7397154540049,
        "timestamp": "2025-12-14T16:47:40.954887+00:00",
        "meta_object_name": "FENGYUN 1C DEB",
        "meta_object_id": "1999-025CC",
        "meta_epoch": "2025-12-13T23:43:55.631712",
        "meta_mean_motion": 14.0908556,
        "meta_eccentricity": 0.00769545,
        "meta_inclination": 98.7357,
        "meta_ra_of_asc_node": 5.1683,
        "meta_arg_of_pericenter": 299.4773,
        "meta_mean_anomaly": 118.6708,
        "meta_ephemeris_type": 0,
        "meta_classification_type": "U",
        "meta_norad_cat_id": 29786,
        "meta_element_set_no": 999,
        "meta_rev_at_epoch": 97178,
        "meta_bstar": 0.00028188317,
        "meta_mean_motion_dot": 4.59e-06,
        "meta_mean_motion_ddot": 0,
        "tle_line1": "1 29786U 99025CC  25347.98883833  .00000459  00000+0  28188-3 0  9995",
        "tle_line2": "2 29786  98.7357   5.1683 0076954 299.4773 118.6708 14.09085560971789"
      },
      "geometry": {
        "type": "Point",
        "coordinates": [
          -10.890625708847335,
          61.9170122520568
        ]
      }
    },
    {
      "type": "Feature",
      "properties": {
        "norad_id": 29788,
        "name": "FENGYUN 1C DEB",
        "group": "fengyun-1c-debris",
        "lat": 63.132329009405744,
        "lon": -101.90146171968765,
        "alt_km": 787.2684087080534,
        "timestamp": "2025-12-14T16:47:40.954897+00:00",
        "meta_object_name": "FENGYUN 1C DEB",
        "meta_object_id": "1999-025CE",
        "meta_epoch": "2025-12-13T18:53:24.378144",
        "meta_mean_motion": 14.2598504,
        "meta_eccentricity": 0.00431132,
        "meta_inclination": 98.7842,
        "meta_ra_of_asc_node": 59.4131,
        "meta_arg_of_pericenter": 186.1384,
        "meta_mean_anomaly": 287.0519,
        "meta_ephemeris_type": 0,
        "meta_classification_type": "U",
        "meta_norad_cat_id": 29788,
        "meta_element_set_no": 999,
        "meta_rev_at_epoch": 97370,
        "meta_bstar": 0.0021342497,
        "meta_mean_motion_dot": 5.1e-05,
        "meta_mean_motion_ddot": 0,
        "tle_line1": "1 29788U 99025CE  25347.78708771  .00005100  00000+0  21342-2 0  9994",
        "tle_line2": "2 29788  98.7842  59.4131 0043113 186.1384 287.0519 14.25985040973706"
      },
      "geometry": {
        "type": "Point",
        "coordinates": [
          -101.90146171968765,
          63.132329009405744
        ]
      }
    },
    {
      "type": "Feature",
      "properties": {
        "norad_id": 29789,
        "name": "FENGYUN 1C DEB",
        "group": "fengyun-1c-debris",
        "lat": 63.46995458664913,
        "lon": 10.902035626381585,
        "alt_km": 1256.6467734614844,
        "timestamp": "2025-12-14T16:47:40.954907+00:00",
        "meta_object_name": "FENGYUN 1C DEB",
        "meta_object_id": "1999-025CF",
        "meta_epoch": "2025-12-13T18:59:40.193952",
        "meta_mean_motion": 13.54243267,
        "meta_eccentricity": 0.02983533,
        "meta_inclination": 99.4515,
        "meta_ra_of_asc_node": 170.5419,
        "meta_arg_of_pericenter": 276.1445,
        "meta_mean_anomaly": 93.8363,
        "meta_ephemeris_type": 0,
        "meta_classification_type": "U",
        "meta_norad_cat_id": 29789,
        "meta_element_set_no": 999,
        "meta_rev_at_epoch": 93002,
        "meta_bstar": 0.0018311278,
        "meta_mean_motion_dot": 1.61e-05,
        "meta_mean_motion_ddot": 0,
        "tle_line1": "1 29789U 99025CF  25347.79143743  .00001610  00000+0  18311-2 0  9992",
        "tle_line2": "2 29789  99.4515 170.5419 0298353 276.1445  93.8363 13.54243267930029"
      },
      "geometry": {
        "type": "Point",
        "coordinates": [
          10.902035626381585,
          63.46995458664913
        ]
      }
    }
  ]
}